{
    "links": {
        "self": "http://www.neowsapp.com/rest/v1/neo/3776855?api_key=iIulBulltgU6a56xZRHN4H3l9WmuAYTsLGpBGhQ2"
    },
    "id": "3776855",
    "neo_reference_id": "3776855",
    "name": "(2017 NS6)",
    "designation": "2017 NS6",
    "nasa_jpl_url": "http://ssd.jpl.nasa.gov/sbdb.cgi?sstr=3776855",
    "absolute_magnitude_h": 21.9,
    "estimated_diameter": {
        "kilometers": {
            "estimated_diameter_min": 0.1108038821,
            "estimated_diameter_max": 0.2477650126
        },
        "meters": {
            "estimated_diameter_min": 110.8038821264,
            "estimated_diameter_max": 247.7650126055
        },
        "miles": {
            "estimated_diameter_min": 0.068850319,
            "estimated_diameter_max": 0.1539539936
        },
        "feet": {
            "estimated_diameter_min": 363.5298086356,
            "estimated_diameter_max": 812.8773639568
        }
    },
    "is_potentially_hazardous_asteroid": false,
    "close_approach_data": [
        {
            "close_approach_date": "2000-06-29",
            "close_approach_date_full": "2000-Jun-29 19:56",
            "epoch_date_close_approach": 962308560000,
            "relative_velocity": {
                "kilometers_per_second": "4.3751821723",
                "kilometers_per_hour": "15750.6558203631",
                "miles_per_hour": "9786.8450012695"
            },
            "miss_distance": {
                "astronomical": "0.2198739854",
                "lunar": "85.5309803206",
                "kilometers": "32892679.884251098",
                "miles": "20438563.5312892324"
            },
            "orbiting_body": "Earth"
        },
        {
            "close_approach_date": "2017-06-30",
            "close_approach_date_full": "2017-Jun-30 18:02",
            "epoch_date_close_approach": 1498845720000,
            "relative_velocity": {
                "kilometers_per_second": "4.3446973368",
                "kilometers_per_hour": "15640.9104125382",
                "miles_per_hour": "9718.6534727241"
            },
            "miss_distance": {
                "astronomical": "0.2368616455",
                "lunar": "92.1391800995",
                "kilometers": "35433997.651495085",
                "miles": "22017665.167938773"
            },
            "orbiting_body": "Earth"
        }
    ],
    "orbital_data": {
        "orbit_id": "6",
        "orbit_determination_date": "2017-11-06 06:17:17",
        "first_observation_date": "2017-07-15",
        "last_observation_date": "2017-08-17",
        "data_arc_in_days": 33,
        "observations_used": 53,
        "orbit_uncertainty": "7",
        "minimum_orbit_intersection": ".216157",
        "jupiter_tisserand_invariant": "3.462",
        "epoch_osculation": "2459000.5",
        "eccentricity": ".4653387144257769",
        "semi_major_axis": "2.258305356505711",
        "inclination": "7.057907423189884",
        "ascending_node_longitude": "142.6056857041284",
        "orbital_period": "1239.573901443404",
        "perihelion_distance": "1.207428445128498",
        "perihelion_argument": "128.4556595430963",
        "aphelion_distance": "3.309182267882925",
        "perihelion_time": "2459161.642815245680",
        "mean_anomaly": "313.2005204200458",
        "mean_motion": ".290422377867752",
        "equinox": "J2000",
        "orbit_class": {
            "orbit_class_type": "AMO",
            "orbit_class_description": "Near-Earth asteroid orbits similar to that of 1221 Amor",
            "orbit_class_range": "1.017 AU < q (perihelion) < 1.3 AU"
        }
    },
    "is_sentry_object": false
}